H1 CPF 01  gfz 2021 11 14 13  8182 terrasarx 
H2 0702601  6201 31698    2021 11 14 12 59 42 2021 11 19 00 00 42   120 1 1  0 0 0
H9
10 0 59535  69102.000000  0    6119264.714  -2241420.557   2226171.837
10 0 59535  69222.000000  0    5727889.859  -2288273.805   3059700.373
10 0 59535  69342.000000  0    5235968.796  -2287389.358   3839353.680
10 0 59535  69462.000000  0    4652969.236  -2237113.862   4551417.082
10 0 59535  69582.000000  0    3989975.912  -2136840.737   5183378.065
10 0 59535  69702.000000  0    3259471.734  -1987044.991   5724147.232
10 0 59535  69822.000000  0    2475093.159  -1789294.425   6164249.603
10 0 59535  69942.000000  0    1651369.438  -1546237.530   6495984.736
10 0 59535  70062.000000  0     803449.128  -1261569.216   6713555.617
10 0 59535  70182.000000  0     -53181.139   -939973.996   6813164.156
10 0 59535  70302.000000  0    -902979.644   -587047.942   6793072.249
10 0 59535  70422.000000  0   -1730630.080   -209201.439   6653629.666
10 0 59535  70542.000000  0   -2521316.175    186456.849   6397268.385
10 0 59535  70662.000000  0   -3260986.312    592252.807   6028463.612
10 0 59535  70782.000000  0   -3936604.889   1000094.184   5553661.319
10 0 59535  70902.000000  0   -4536386.729   1401630.052   4981172.022
10 0 59535  71022.000000  0   -5050009.198   1788420.421   4321031.092
10 0 59535  71142.000000  0   -5468797.926   2152112.458   3584827.032
10 0 59535  71262.000000  0   -5785881.198   2484619.063   2785500.318
10 0 59535  71382.000000  0   -5996310.761   2778296.276   1937116.407
10 0 59535  71502.000000  0   -6097146.275   3026115.508   1054615.445
10 0 59535  71622.000000  0   -6087499.306   3221825.966    153542.127
10 0 59535  71742.000000  0   -5968534.868   3360102.460   -750236.186
10 0 59535  71862.000000  0   -5743432.129   3436674.863  -1640817.606
10 0 59535  71982.000000  0   -5417304.950   3448436.650  -2502554.930
10 0 59535  72102.000000  0   -4997081.902   3393528.653  -3320338.055
10 0 59535  72222.000000  0   -4491352.161   3271396.689  -4079862.781
10 0 59535  72342.000000  0   -3910180.799   3082821.845  -4767880.307
10 0 59535  72462.000000  0   -3264899.986   2829923.626  -5372423.783
10 0 59535  72582.000000  0   -2567881.612   2516136.531  -5883007.522
10 0 59535  72702.000000  0   -1832296.471   2146161.781  -6290799.690
10 0 59535  72822.000000  0   -1071862.571   1725893.637  -6588763.738
10 0 59535  72942.000000  0    -300591.263   1262323.760  -6771767.889
10 0 59535  73062.000000  0     467466.383    763424.790  -6836663.891
10 0 59535  73182.000000  0    1218468.701    238015.849  -6782336.305
10 0 59535  73302.000000  0    1939028.462   -304390.391  -6609720.291
10 0 59535  73422.000000  0    2616445.682   -853755.676  -6321786.107
10 0 59535  73542.000000  0    3238927.877  -1399697.105  -5923493.997
10 0 59535  73662.000000  0    3795793.631  -1931678.058  -5421717.187
10 0 59535  73782.000000  0    4277658.420  -2439208.408  -4825135.333
10 0 59535  73902.000000  0    4676597.727  -2912050.567  -4144094.807
10 0 59535  74022.000000  0    4986283.553  -3340425.700  -3390439.283
10 0 59535  74142.000000  0    5202093.300  -3715216.616  -2577312.203
10 0 59535  74262.000000  0    5321187.445  -4028163.255  -1718931.843
10 0 59535  74382.000000  0    5342552.290  -4272045.235   -830343.490
10 0 59535  74502.000000  0    5267007.104  -4440847.514     72847.177
10 0 59535  74622.000000  0    5097174.214  -4529904.769    974754.390
10 0 59535  74742.000000  0    4837411.420  -4536018.750   1859500.591
10 0 59535  74862.000000  0    4493709.228  -4457545.883   2711504.924
10 0 59535  74982.000000  0    4073556.155  -4294452.908   3515765.376
10 0 59535  75102.000000  0    3585775.190  -4048340.460   4258129.263
10 0 59535  75222.000000  0    3040334.640  -3722432.948   4925546.503
10 0 59535  75342.000000  0    2448139.807  -3321534.699   5506299.311
10 0 59535  75462.000000  0    1820810.838  -2851955.525   5990206.301
10 0 59535  75582.000000  0    1170450.157  -2321405.948   6368796.305
10 0 59535  75702.000000  0     509406.519  -1738866.431   6635450.235
10 0 59535  75822.000000  0    -149960.720  -1114432.511   6785510.615
10 0 59535  75942.000000  0    -795512.045   -459137.840   6816357.886
10 0 59535  76062.000000  0   -1415550.106    215241.231   6727452.825
10 0 59535  76182.000000  0   -1999030.854    896396.749   6520345.407
10 0 59535  76302.000000  0   -2535759.868   1571712.868   6198649.543
10 0 59535  76422.000000  0   -3016571.168   2228498.549   5767984.114
10 0 59535  76542.000000  0   -3433485.993   2854226.377   5235881.399
10 0 59535  76662.000000  0   -3779849.338   3436773.525   4611661.529
10 0 59535  76782.000000  0   -4050440.933   3964659.646   3906274.726
10 0 59535  76902.000000  0   -4241558.310   4427278.099   3132113.274
10 0 59535  77022.000000  0   -4351069.820   4815114.789   2302794.495
10 0 59535  77142.000000  0   -4378434.893   5119948.387   1432918.534
10 0 59535  77262.000000  0   -4324692.548   5335026.948    537806.672
10 0 59535  77382.000000  0   -4192418.525   5455217.448   -366774.994
10 0 59535  77502.000000  0   -3985650.326   5477124.842  -1264902.814
10 0 59535  77622.000000  0   -3709781.463   5399173.523  -2140786.801
10 0 59535  77742.000000  0   -3371428.330   5221651.855  -2979055.418
10 0 59535  77862.000000  0   -2978274.405   4946719.392  -3765030.908
10 0 59535  77982.000000  0   -2538896.021   4578375.088  -4484987.272
10 0 59535  78102.000000  0   -2062574.399   4122390.486  -5126386.306
10 0 59535  78222.000000  0   -1559099.542   3586211.310  -5678088.387
10 0 59535  78342.000000  0   -1038569.693   2978828.434  -6130537.963
10 0 59535  78462.000000  0    -511189.781   2310619.995  -6475918.910
10 0 59535  78582.000000  0      12926.095   1593170.274  -6708277.452
10 0 59535  78702.000000  0     523943.918    839068.758  -6823614.697
10 0 59535  78822.000000  0    1012489.878     61692.283  -6819948.768
10 0 59535  78942.000000  0    1469818.659   -725028.166  -6697344.890
10 0 59535  79062.000000  0    1887965.674  -1506851.237  -6457912.804
10 0 59535  79182.000000  0    2259882.948  -2269476.071  -6105774.576
10 0 59535  79302.000000  0    2579557.032  -2998797.873  -5647001.974
10 0 59535  79422.000000  0    2842107.648  -3681167.326  -5089523.783
10 0 59535  79542.000000  0    3043864.545  -4303647.703  -4442998.028
10 0 59535  79662.000000  0    3182419.579  -4854261.452  -3718654.250
10 0 59535  79782.000000  0    3256655.419  -5322226.006  -2929109.416
10 0 59535  79902.000000  0    3266748.986  -5698174.316  -2088154.651
10 0 59535  80022.000000  0    3214148.575  -5974350.828  -1210516.375
10 0 59535  80142.000000  0    3101524.998  -6144780.060   -311596.918
10 0 59535  80262.000000  0    2932696.292  -6205401.198    592801.922
10 0 59535  80382.000000  0    2712528.350  -6154164.919   1486763.334
10 0 59535  80502.000000  0    2446814.792  -5991091.584   2354545.365
10 0 59535  80622.000000  0    2142136.957  -5718284.830   3180867.689
10 0 59535  80742.000000  0    1805709.314  -5339903.342   3951186.747
10 0 59535  80862.000000  0    1445214.140  -4862093.124   4651956.003
10 0 59535  80982.000000  0    1068630.454  -4292880.427   5270865.900
10 0 59535  81102.000000  0     684060.016  -3642028.794   5797060.752
10 0 59535  81222.000000  0     299554.257  -2920861.115   6221325.320
10 0 59535  81342.000000  0     -77052.382  -2142055.211   6536239.052
10 0 59535  81462.000000  0    -438299.752  -1319416.918   6736299.017
10 0 59535  81582.000000  0    -777247.961   -467633.711   6818011.342
10 0 59535  81702.000000  0   -1087609.397    397988.812   6779949.108
10 0 59535  81822.000000  0   -1363864.816   1261801.887   6622775.430
10 0 59535  81942.000000  0   -1601361.109   2108095.585   6349232.406
10 0 59535  82062.000000  0   -1796390.104   2921383.970   5964096.524
10 0 59535  82182.000000  0   -1946246.847   3686689.308   5474099.927
10 0 59535  82302.000000  0   -2049266.202   4389820.409   4887819.403
10 0 59535  82422.000000  0   -2104838.161   5017641.813   4215532.763
10 0 59535  82542.000000  0   -2113400.215   5558327.036   3469043.103
10 0 59535  82662.000000  0   -2076407.562   6001590.277   2661473.313
10 0 59535  82782.000000  0   -1996281.328   6338890.624   1807034.594
10 0 59535  82902.000000  0   -1876335.435   6563604.955    920772.702
10 0 59535  83022.000000  0   -1720683.662   6671164.042     18297.032
10 0 59535  83142.000000  0   -1534130.081   6659148.718   -884502.010
10 0 59535  83262.000000  0   -1322044.855   6527343.952  -1771743.412
10 0 59535  83382.000000  0   -1090227.738   6277743.825  -2627845.780
10 0 59535  83502.000000  0    -844765.257   5914511.400  -3437805.695
10 0 59535  83622.000000  0    -591884.556   5443898.878  -4187461.795
10 0 59535  83742.000000  0    -337807.574   4874128.237  -4863741.568
10 0 59535  83862.000000  0     -88608.593   4215235.776  -5454884.408
10 0 59535  83982.000000  0     149921.885   3478885.130  -5950639.064
10 0 59535  84102.000000  0     372403.517   2678151.749  -6342431.696
10 0 59535  84222.000000  0     573979.661   1827285.426  -6623502.218
10 0 59535  84342.000000  0     750417.251    941456.530  -6789010.191
10 0 59535  84462.000000  0     898190.888     36487.965  -6836109.645
10 0 59535  84582.000000  0    1014550.042   -871422.649  -6763992.633
10 0 59535  84702.000000  0    1097568.307  -1765986.369  -6573899.902
10 0 59535  84822.000000  0    1146174.586  -2631106.571  -6269101.324
10 0 59535  84942.000000  0    1160166.532  -3451162.250  -5854847.896
10 0 59535  85062.000000  0    1140204.064  -4211289.008  -5338291.204
10 0 59535  85182.000000  0    1087784.467  -4897648.961  -4728369.518
10 0 59535  85302.000000  0    1005199.372  -5497686.490  -4035664.960
10 0 59535  85422.000000  0     895473.036  -6000366.492  -3272229.866
10 0 59535  85542.000000  0     762283.714  -6396387.777  -2451384.305
99
